CCSDS_OMM_VERS = 2.0
CREATION_DATE  = 
ORIGINATOR     = 

OBJECT_NAME    = SL-16 R/B
OBJECT_ID      = 1993-016B
CENTER_NAME    = EARTH
REF_FRAME      = TEME
TIME_SYSTEM    = UTC
MEAN_ELEMENT_THEORY = SGP/SGP4

EPOCH          = 2025-12-18T12:01:05.949120
MEAN_MOTION    = 14.15288254
ECCENTRICITY   = .00080071
INCLINATION    = 71.0079
RA_OF_ASC_NODE = 25.7039
ARG_OF_PERICENTER = 86.4641
MEAN_ANOMALY   = 273.7398

EPHEMERIS_TYPE = 0
CLASSIFICATION_TYPE = U
NORAD_CAT_ID   = 22566
ELEMENT_SET_NO = 999
REV_AT_EPOCH   = 69068
BSTAR          = .14028823E-3
MEAN_MOTION_DOT = .226E-5
MEAN_MOTION_DDOT = 0

CCSDS_OMM_VERS = 2.0
CREATION_DATE  = 
ORIGINATOR     = 

OBJECT_NAME    = COSMOS 2242
OBJECT_ID      = 1993-024A
CENTER_NAME    = EARTH
REF_FRAME      = TEME
TIME_SYSTEM    = UTC
MEAN_ELEMENT_THEORY = SGP/SGP4

EPOCH          = 2025-12-18T10:54:23.834592
MEAN_MOTION    = 14.96129268
ECCENTRICITY   = .00153298
INCLINATION    = 82.5183
RA_OF_ASC_NODE = 344.3822
ARG_OF_PERICENTER = 213.5668
MEAN_ANOMALY   = 146.4584

EPHEMERIS_TYPE = 0
CLASSIFICATION_TYPE = U
NORAD_CAT_ID   = 22626
ELEMENT_SET_NO = 999
REV_AT_EPOCH   = 76824
BSTAR          = .15004347E-3
MEAN_MOTION_DOT = .1717E-4
MEAN_MOTION_DDOT = 0

CCSDS_OMM_VERS = 2.0
CREATION_DATE  = 
ORIGINATOR     = 

OBJECT_NAME    = SL-16 R/B
OBJECT_ID      = 1993-059B
CENTER_NAME    = EARTH
REF_FRAME      = TEME
TIME_SYSTEM    = UTC
MEAN_ELEMENT_THEORY = SGP/SGP4

EPOCH          = 2025-12-18T22:38:24.780768
MEAN_MOTION    = 14.17213101
ECCENTRICITY   = .00183048
INCLINATION    = 70.9879
RA_OF_ASC_NODE = 181.4042
ARG_OF_PERICENTER = 326.8515
MEAN_ANOMALY   = 33.1460

EPHEMERIS_TYPE = 0
CLASSIFICATION_TYPE = U
NORAD_CAT_ID   = 22803
ELEMENT_SET_NO = 999
REV_AT_EPOCH   = 66809
BSTAR          = .17487448E-4
MEAN_MOTION_DOT = -.13E-6
MEAN_MOTION_DDOT = 0

CCSDS_OMM_VERS = 2.0
CREATION_DATE  = 
ORIGINATOR     = 

OBJECT_NAME    = ARIANE 40 R/B
OBJECT_ID      = 1993-061H
CENTER_NAME    = EARTH
REF_FRAME      = TEME
TIME_SYSTEM    = UTC
MEAN_ELEMENT_THEORY = SGP/SGP4

EPOCH          = 2025-12-18T16:39:01.711584
MEAN_MOTION    = 14.32805219
ECCENTRICITY   = .0011215
INCLINATION    = 98.5070
RA_OF_ASC_NODE = 58.1152
ARG_OF_PERICENTER = 158.9011
MEAN_ANOMALY   = 201.2638

EPHEMERIS_TYPE = 0
CLASSIFICATION_TYPE = U
NORAD_CAT_ID   = 22830
ELEMENT_SET_NO = 999
REV_AT_EPOCH   = 68250
BSTAR          = .89831426E-4
MEAN_MOTION_DOT = .202E-5
MEAN_MOTION_DDOT = 0

CCSDS_OMM_VERS = 2.0
CREATION_DATE  = 
ORIGINATOR     = 

OBJECT_NAME    = COSMOS 2278
OBJECT_ID      = 1994-023A
CENTER_NAME    = EARTH
REF_FRAME      = TEME
TIME_SYSTEM    = UTC
MEAN_ELEMENT_THEORY = SGP/SGP4

EPOCH          = 2025-12-18T09:44:45.689568
MEAN_MOTION    = 14.14348758
ECCENTRICITY   = .00080146
INCLINATION    = 71.0535
RA_OF_ASC_NODE = 345.1556
ARG_OF_PERICENTER = 169.8446
MEAN_ANOMALY   = 190.2840

EPHEMERIS_TYPE = 0
CLASSIFICATION_TYPE = U
NORAD_CAT_ID   = 23087
ELEMENT_SET_NO = 999
REV_AT_EPOCH   = 63331
BSTAR          = -.7816451E-4
MEAN_MOTION_DOT = -.197E-5
MEAN_MOTION_DDOT = 0

CCSDS_OMM_VERS = 2.0
CREATION_DATE  = 
ORIGINATOR     = 

OBJECT_NAME    = SL-16 R/B
OBJECT_ID      = 1994-023B
CENTER_NAME    = EARTH
REF_FRAME      = TEME
TIME_SYSTEM    = UTC
MEAN_ELEMENT_THEORY = SGP/SGP4

EPOCH          = 2025-12-18T21:55:47.205984
MEAN_MOTION    = 14.15002047
ECCENTRICITY   = .00017297
INCLINATION    = 70.9993
RA_OF_ASC_NODE = 240.5207
ARG_OF_PERICENTER = 10.8300
MEAN_ANOMALY   = 349.2859

EPHEMERIS_TYPE = 0
CLASSIFICATION_TYPE = U
NORAD_CAT_ID   = 23088
ELEMENT_SET_NO = 999
REV_AT_EPOCH   = 63466
BSTAR          = -.75841662E-4
MEAN_MOTION_DOT = -.195E-5
MEAN_MOTION_DDOT = 0

CCSDS_OMM_VERS = 2.0
CREATION_DATE  = 
ORIGINATOR     = 

OBJECT_NAME    = SL-16 R/B
OBJECT_ID      = 1994-074B
CENTER_NAME    = EARTH
REF_FRAME      = TEME
TIME_SYSTEM    = UTC
MEAN_ELEMENT_THEORY = SGP/SGP4

EPOCH          = 2025-12-18T23:10:50.755872
MEAN_MOTION    = 14.79296536
ECCENTRICITY   = .00078648
INCLINATION    = 97.7195
RA_OF_ASC_NODE = 22.0229
ARG_OF_PERICENTER = 118.6624
MEAN_ANOMALY   = 304.5083

EPHEMERIS_TYPE = 0
CLASSIFICATION_TYPE = U
NORAD_CAT_ID   = 23343
ELEMENT_SET_NO = 999
REV_AT_EPOCH   = 67531
BSTAR          = .57742241E-4
MEAN_MOTION_DOT = .38E-5
MEAN_MOTION_DDOT = 0

CCSDS_OMM_VERS = 2.0
CREATION_DATE  = 
ORIGINATOR     = 

OBJECT_NAME    = SL-16 R/B
OBJECT_ID      = 1994-077B
CENTER_NAME    = EARTH
REF_FRAME      = TEME
TIME_SYSTEM    = UTC
MEAN_ELEMENT_THEORY = SGP/SGP4

EPOCH          = 2025-12-18T22:14:41.411616
MEAN_MOTION    = 14.15552786
ECCENTRICITY   = .00049235
INCLINATION    = 70.9819
RA_OF_ASC_NODE = 162.3981
ARG_OF_PERICENTER = 281.0518
MEAN_ANOMALY   = 79.0051

EPHEMERIS_TYPE = 0
CLASSIFICATION_TYPE = U
NORAD_CAT_ID   = 23405
ELEMENT_SET_NO = 999
REV_AT_EPOCH   = 60480
BSTAR          = .5267106E-4
MEAN_MOTION_DOT = .55E-6
MEAN_MOTION_DDOT = 0

CCSDS_OMM_VERS = 2.0
CREATION_DATE  = 
ORIGINATOR     = 

OBJECT_NAME    = ARIANE 40+ R/B
OBJECT_ID      = 1995-021B
CENTER_NAME    = EARTH
REF_FRAME      = TEME
TIME_SYSTEM    = UTC
MEAN_ELEMENT_THEORY = SGP/SGP4

EPOCH          = 2025-12-18T19:01:50.545632
MEAN_MOTION    = 14.39699974
ECCENTRICITY   = .00071974
INCLINATION    = 98.4646
RA_OF_ASC_NODE = 60.3087
ARG_OF_PERICENTER = 33.3807
MEAN_ANOMALY   = 79.2174

EPHEMERIS_TYPE = 0
CLASSIFICATION_TYPE = U
NORAD_CAT_ID   = 23561
ELEMENT_SET_NO = 999
REV_AT_EPOCH   = 60760
BSTAR          = .93239353E-4
MEAN_MOTION_DOT = .248E-5
MEAN_MOTION_DDOT = 0

CCSDS_OMM_VERS = 2.0
CREATION_DATE  = 
ORIGINATOR     = 

OBJECT_NAME    = SL-16 R/B
OBJECT_ID      = 1995-058B
CENTER_NAME    = EARTH
REF_FRAME      = TEME
TIME_SYSTEM    = UTC
MEAN_ELEMENT_THEORY = SGP/SGP4

EPOCH          = 2025-12-18T10:26:39.377472
MEAN_MOTION    = 14.15483599
ECCENTRICITY   = .0014929
INCLINATION    = 71.0222
RA_OF_ASC_NODE = 350.8468
ARG_OF_PERICENTER = 248.0933
MEAN_ANOMALY   = 111.8603

EPHEMERIS_TYPE = 0
CLASSIFICATION_TYPE = U
NORAD_CAT_ID   = 23705
ELEMENT_SET_NO = 999
REV_AT_EPOCH   = 55635
BSTAR          = -.73492183E-4
MEAN_MOTION_DOT = -.191E-5
MEAN_MOTION_DDOT = 0

CCSDS_OMM_VERS = 2.0
CREATION_DATE  = 
ORIGINATOR     = 

OBJECT_NAME    = SL-16 R/B
OBJECT_ID      = 1996-051B
CENTER_NAME    = EARTH
REF_FRAME      = TEME
TIME_SYSTEM    = UTC
MEAN_ELEMENT_THEORY = SGP/SGP4

EPOCH          = 2025-12-18T10:30:15.379200
MEAN_MOTION    = 14.12397340
ECCENTRICITY   = .00194674
INCLINATION    = 70.7595
RA_OF_ASC_NODE = 347.2229
ARG_OF_PERICENTER = 254.3640
MEAN_ANOMALY   = 105.5332

EPHEMERIS_TYPE = 0
CLASSIFICATION_TYPE = U
NORAD_CAT_ID   = 24298
ELEMENT_SET_NO = 999
REV_AT_EPOCH   = 51017
BSTAR          = .16749431E-4
MEAN_MOTION_DOT = -.18E-6
MEAN_MOTION_DDOT = 0

CCSDS_OMM_VERS = 2.0
CREATION_DATE  = 
ORIGINATOR     = 

OBJECT_NAME    = ORBVIEW 2 (SEASTAR)
OBJECT_ID      = 1997-037A
CENTER_NAME    = EARTH
REF_FRAME      = TEME
TIME_SYSTEM    = UTC
MEAN_ELEMENT_THEORY = SGP/SGP4

EPOCH          = 2025-12-18T21:50:23.560224
MEAN_MOTION    = 14.35421431
ECCENTRICITY   = .00014109
INCLINATION    = 98.8460
RA_OF_ASC_NODE = 150.1399
ARG_OF_PERICENTER = 317.2143
MEAN_ANOMALY   = 42.8931

EPHEMERIS_TYPE = 0
CLASSIFICATION_TYPE = U
NORAD_CAT_ID   = 24883
ELEMENT_SET_NO = 999
REV_AT_EPOCH   = 49688
BSTAR          = .88251302E-4
MEAN_MOTION_DOT = .207E-5
MEAN_MOTION_DDOT = 0

