SL-16 R/B               
1 22566U 93016B   25352.50076330  .00000226  00000+0  14029-3 0  9999
2 22566  71.0079  25.7039 0008007  86.4641 273.7398 14.15288254690685
COSMOS 2242             
1 22626U 93024A   25352.45444253  .00001717  00000+0  15004-3 0  9992
2 22626  82.5183 344.3822 0015329 213.5668 146.4584 14.96129268768241
SL-16 R/B               
1 22803U 93059B   25352.94334237 -.00000013  00000+0  17487-4 0  9998
2 22803  70.9879 181.4042 0018304 326.8515  33.1460 14.17213101668090
ARIANE 40 R/B           
1 22830U 93061H   25352.69376981  .00000202  00000+0  89831-4 0  9996
2 22830  98.5070  58.1152 0011215 158.9011 201.2638 14.32805219682501
COSMOS 2278             
1 23087U 94023A   25352.40608437 -.00000197  00000+0 -78165-4 0  9996
2 23087  71.0535 345.1556 0008014 169.8446 190.2840 14.14348758633318
SL-16 R/B               
1 23088U 94023B   25352.91374081 -.00000195  00000+0 -75842-4 0  9995
2 23088  70.9993 240.5207 0001729  10.8300 349.2859 14.15002047634660
SL-16 R/B               
1 23343U 94074B   25352.96586523  .00000380  00000+0  57742-4 0  9999
2 23343  97.7195  22.0229 0007864 118.6624 304.5083 14.79296536675312
SL-16 R/B               
1 23405U 94077B   25352.92686819  .00000055  00000+0  52671-4 0  9991
2 23405  70.9819 162.3981 0004923 281.0518  79.0051 14.15552786604807
ARIANE 40+ R/B          
1 23561U 95021B   25352.79294613  .00000248  00000+0  93239-4 0  9995
2 23561  98.4646  60.3087 0007197  33.3807  79.2174 14.39699974607608
SL-16 R/B               
1 23705U 95058B   25352.43517798 -.00000191  00000+0 -73492-4 0  9996
2 23705  71.0222 350.8468 0014929 248.0933 111.8603 14.15483599556354
SL-16 R/B               
1 24298U 96051B   25352.43767800 -.00000018  00000+0  16749-4 0  9998
2 24298  70.7595 347.2229 0019467 254.3640 105.5332 14.12397340510177
ORBVIEW 2 (SEASTAR)     
1 24883U 97037A   25352.90999491  .00000207  00000+0  88251-4 0  9994
2 24883  98.8460 150.1399 0001410 317.2143  42.8931 14.35421431496887
